{"fetched_at":"2026-07-24T07:06:08.057Z","source":"https://celestrak.org/NORAD/elements/gp.php?GROUP=oneweb&FORMAT=JSON","constellation":"oneweb","records":[{"OBJECT_NAME":"ONEWEB-0044","OBJECT_ID":"2020-008V","EPOCH":"2026-07-23T06:33:04.493952","CLASSIFICATION_TYPE":"U","MEAN_MOTION":13.10374778,"ECCENTRICITY":0.0001654,"INCLINATION":87.8827,"RA_OF_ASC_NODE":29.0773,"ARG_OF_PERICENTER":87.1758,"MEAN_ANOMALY":272.9558,"EPHEMERIS_TYPE":0,"NORAD_CAT_ID":45150,"ELEMENT_SET_NO":999,"REV_AT_EPOCH":31320,"BSTAR":0.0017468,"MEAN_MOTION_DOT":0.00000622,"MEAN_MOTION_DDOT":0},{"OBJECT_NAME":"ONEWEB-0045","OBJECT_ID":"2020-008W","EPOCH":"2026-07-23T09:42:38.939040","CLASSIFICATION_TYPE":"U","MEAN_MOTION":13.11414926,"ECCENTRICITY":0.0001699,"INCLINATION":87.8896,"RA_OF_ASC_NODE":13.8503,"ARG_OF_PERICENTER":95.1099,"MEAN_ANOMALY":265.0223,"EPHEMERIS_TYPE":0,"NORAD_CAT_ID":45151,"ELEMENT_SET_NO":999,"REV_AT_EPOCH":31515,"BSTAR":-0.00017854,"MEAN_MOTION_DOT":-5.1e-7,"MEAN_MOTION_DDOT":0},{"OBJECT_NAME":"ONEWEB-0047","OBJECT_ID":"2020-008X","EPOCH":"2026-07-23T11:52:58.133856","CLASSIFICATION_TYPE":"U","MEAN_MOTION":13.10374484,"ECCENTRICITY":0.0001923,"INCLINATION":87.8836,"RA_OF_ASC_NODE":29.0317,"ARG_OF_PERICENTER":92.705,"MEAN_ANOMALY":267.4298,"EPHEMERIS_TYPE":0,"NORAD_CAT_ID":45152,"ELEMENT_SET_NO":999,"REV_AT_EPOCH":31295,"BSTAR":0.001588,"MEAN_MOTION_DOT":0.00000567,"MEAN_MOTION_DDOT":0},{"OBJECT_NAME":"ONEWEB-0048","OBJECT_ID":"2020-008Y","EPOCH":"2026-07-23T11:45:50.275008","CLASSIFICATION_TYPE":"U","MEAN_MOTION":13.10376476,"ECCENTRICITY":0.0001742,"INCLINATION":87.8819,"RA_OF_ASC_NODE":29.051,"ARG_OF_PERICENTER":93.5299,"MEAN_ANOMALY":266.6027,"EPHEMERIS_TYPE":0,"NORAD_CAT_ID":45153,"ELEMENT_SET_NO":999,"REV_AT_EPOCH":31256,"BSTAR":0.0010003,"MEAN_MOTION_DOT":0.00000362,"MEAN_MOTION_DDOT":0},{"OBJECT_NAME":"ONEWEB-0049","OBJECT_ID":"2020-008Z","EPOCH":"2026-07-23T00:50:47.118912","CLASSIFICATION_TYPE":"U","MEAN_MOTION":13.10374586,"ECCENTRICITY":0.00017199,"INCLINATION":87.8817,"RA_OF_ASC_NODE":29.1307,"ARG_OF_PERICENTER":74.8221,"MEAN_ANOMALY":285.3097,"EPHEMERIS_TYPE":0,"NORAD_CAT_ID":45154,"ELEMENT_SET_NO":999,"REV_AT_EPOCH":31272,"BSTAR":0.0016331039,"MEAN_MOTION_DOT":0.00000583,"MEAN_MOTION_DDOT":0},{"OBJECT_NAME":"ONEWEB-0051","OBJECT_ID":"2020-008AA","EPOCH":"2026-07-23T04:10:35.902560","CLASSIFICATION_TYPE":"U","MEAN_MOTION":13.1141643,"ECCENTRICITY":0.0001822,"INCLINATION":87.8892,"RA_OF_ASC_NODE":13.9015,"ARG_OF_PERICENTER":92.125,"MEAN_ANOMALY":268.0086,"EPHEMERIS_TYPE":0,"NORAD_CAT_ID":45155,"ELEMENT_SET_NO":999,"REV_AT_EPOCH":31580,"BSTAR":0.00013112924,"MEAN_MOTION_DOT":5.9e-7,"MEAN_MOTION_DDOT":0},{"OBJECT_NAME":"ONEWEB-0052","OBJECT_ID":"2020-008AB","EPOCH":"2026-07-23T12:20:14.542080","CLASSIFICATION_TYPE":"U","MEAN_MOTION":13.10372245,"ECCENTRICITY":0.0001593,"INCLINATION":87.882,"RA_OF_ASC_NODE":29.0228,"ARG_OF_PERICENTER":83.0251,"MEAN_ANOMALY":277.1057,"EPHEMERIS_TYPE":0,"NORAD_CAT_ID":45156,"ELEMENT_SET_NO":999,"REV_AT_EPOCH":31269,"BSTAR":0.0013568,"MEAN_MOTION_DOT":0.00000486,"MEAN_MOTION_DDOT":0},{"OBJECT_NAME":"ONEWEB-0053","OBJECT_ID":"2020-008AC","EPOCH":"2026-07-23T11:16:28.943616","CLASSIFICATION_TYPE":"U","MEAN_MOTION":13.10373506,"ECCENTRICITY":0.0001323,"INCLINATION":87.8817,"RA_OF_ASC_NODE":29.0515,"ARG_OF_PERICENTER":83.49,"MEAN_ANOMALY":276.6378,"EPHEMERIS_TYPE":0,"NORAD_CAT_ID":45157,"ELEMENT_SET_NO":999,"REV_AT_EPOCH":31266,"BSTAR":-0.0017123,"MEAN_MOTION_DOT":-0.00000585,"MEAN_MOTION_DDOT":0},{"OBJECT_NAME":"ONEWEB-0054","OBJECT_ID":"2020-008AD","EPOCH":"2026-07-23T06:37:57.199008","CLASSIFICATION_TYPE":"U","MEAN_MOTION":13.10375014,"ECCENTRICITY":0.0001787,"INCLINATION":87.8821,"RA_OF_ASC_NODE":29.076,"ARG_OF_PERICENTER":87.2972,"MEAN_ANOMALY":272.836,"EPHEMERIS_TYPE":0,"NORAD_CAT_ID":45158,"ELEMENT_SET_NO":999,"REV_AT_EPOCH":31275,"BSTAR":0.0018691,"MEAN_MOTION_DOT":0.00000665,"MEAN_MOTION_DDOT":0},{"OBJECT_NAME":"ONEWEB-0056","OBJECT_ID":"2020-008AE","EPOCH":"2026-07-23T11:26:03.473376","CLASSIFICATION_TYPE":"U","MEAN_MOTION":13.10374874,"ECCENTRICITY":0.0001978,"INCLINATION":87.8824,"RA_OF_ASC_NODE":29.0298,"ARG_OF_PERICENTER":83.0545,"MEAN_ANOMALY":277.0807,"EPHEMERIS_TYPE":0,"NORAD_CAT_ID":45159,"ELEMENT_SET_NO":999,"REV_AT_EPOCH":31293,"BSTAR":-0.0011914,"MEAN_MOTION_DOT":-0.00000403,"MEAN_MOTION_DDOT":0},{"OBJECT_NAME":"ONEWEB-0057","OBJECT_ID":"2020-008AF","EPOCH":"2026-07-23T11:50:55.358592","CLASSIFICATION_TYPE":"U","MEAN_MOTION":13.10374584,"ECCENTRICITY":0.0001356,"INCLINATION":87.8825,"RA_OF_ASC_NODE":29.0376,"ARG_OF_PERICENTER":78.5846,"MEAN_ANOMALY":281.5434,"EPHEMERIS_TYPE":0,"NORAD_CAT_ID":45160,"ELEMENT_SET_NO":999,"REV_AT_EPOCH":31310,"BSTAR":0.0014302,"MEAN_MOTION_DOT":0.00000512,"MEAN_MOTION_DDOT":0},{"OBJECT_NAME":"ONEWEB-0058","OBJECT_ID":"2020-008AG","EPOCH":"2026-07-23T06:01:30.425376","CLASSIFICATION_TYPE":"U","MEAN_MOTION":13.10377611,"ECCENTRICITY":0.0001921,"INCLINATION":87.8818,"RA_OF_ASC_NODE":29.0895,"ARG_OF_PERICENTER":95.7573,"MEAN_ANOMALY":264.3774,"EPHEMERIS_TYPE":0,"NORAD_CAT_ID":45161,"ELEMENT_SET_NO":999,"REV_AT_EPOCH":31314,"BSTAR":-0.00040861,"MEAN_MOTION_DOT":-0.0000013,"MEAN_MOTION_DDOT":0},{"OBJECT_NAME":"ONEWEB-0059","OBJECT_ID":"2020-008AH","EPOCH":"2026-07-23T05:56:37.079232","CLASSIFICATION_TYPE":"U","MEAN_MOTION":13.10377028,"ECCENTRICITY":0.0001547,"INCLINATION":87.8819,"RA_OF_ASC_NODE":29.0902,"ARG_OF_PERICENTER":92.578,"MEAN_ANOMALY":267.5524,"EPHEMERIS_TYPE":0,"NORAD_CAT_ID":45162,"ELEMENT_SET_NO":999,"REV_AT_EPOCH":31304,"BSTAR":-0.00080529,"MEAN_MOTION_DOT":-0.00000268,"MEAN_MOTION_DDOT":0},{"OBJECT_NAME":"ONEWEB-0062","OBJECT_ID":"2020-008AJ","EPOCH":"2026-07-23T12:00:18.571680","CLASSIFICATION_TYPE":"U","MEAN_MOTION":13.10372671,"ECCENTRICITY":0.0002092,"INCLINATION":87.8826,"RA_OF_ASC_NODE":29.0297,"ARG_OF_PERICENTER":93.2112,"MEAN_ANOMALY":266.9255,"EPHEMERIS_TYPE":0,"NORAD_CAT_ID":45163,"ELEMENT_SET_NO":999,"REV_AT_EPOCH":31294,"BSTAR":0.0017639,"MEAN_MOTION_DOT":0.00000628,"MEAN_MOTION_DDOT":0},{"OBJECT_NAME":"ONEWEB-0065","OBJECT_ID":"2020-008AK","EPOCH":"2026-07-23T10:59:10.315392","CLASSIFICATION_TYPE":"U","MEAN_MOTION":13.10370449,"ECCENTRICITY":0.0001674,"INCLINATION":87.8823,"RA_OF_ASC_NODE":29.0452,"ARG_OF_PERICENTER":81.4603,"MEAN_ANOMALY":278.6714,"EPHEMERIS_TYPE":0,"NORAD_CAT_ID":45164,"ELEMENT_SET_NO":999,"REV_AT_EPOCH":31263,"BSTAR":-0.0015697,"MEAN_MOTION_DOT":-0.00000535,"MEAN_MOTION_DDOT":0},{"OBJECT_NAME":"ONEWEB-0066","OBJECT_ID":"2020-020A","EPOCH":"2026-07-23T00:08:51.923328","CLASSIFICATION_TYPE":"U","MEAN_MOTION":13.11413942,"ECCENTRICITY":0.0001822,"INCLINATION":87.8884,"RA_OF_ASC_NODE":13.9378,"ARG_OF_PERICENTER":96.0659,"MEAN_ANOMALY":264.0677,"EPHEMERIS_TYPE":0,"NORAD_CAT_ID":45424,"ELEMENT_SET_NO":999,"REV_AT_EPOCH":30737,"BSTAR":0.001532788,"MEAN_MOTION_DOT":0.00000556,"MEAN_MOTION_DDOT":0},{"OBJECT_NAME":"ONEWEB-0067","OBJECT_ID":"2020-020B","EPOCH":"2026-07-23T10:12:26.890272","CLASSIFICATION_TYPE":"U","MEAN_MOTION":13.11426073,"ECCENTRICITY":0.0001631,"INCLINATION":87.8911,"RA_OF_ASC_NODE":13.7835,"ARG_OF_PERICENTER":88.8493,"MEAN_ANOMALY":271.2822,"EPHEMERIS_TYPE":0,"NORAD_CAT_ID":45425,"ELEMENT_SET_NO":999,"REV_AT_EPOCH":30748,"BSTAR":-0.0014014,"MEAN_MOTION_DOT":-0.00000484,"MEAN_MOTION_DDOT":0},{"OBJECT_NAME":"ONEWEB-0080","OBJECT_ID":"2020-020C","EPOCH":"2026-07-23T10:12:09.343296","CLASSIFICATION_TYPE":"U","MEAN_MOTION":13.11416748,"ECCENTRICITY":0.0002101,"INCLINATION":87.8902,"RA_OF_ASC_NODE":13.8551,"ARG_OF_PERICENTER":96.5539,"MEAN_ANOMALY":263.5828,"EPHEMERIS_TYPE":0,"NORAD_CAT_ID":45426,"ELEMENT_SET_NO":999,"REV_AT_EPOCH":30745,"BSTAR":-0.0014097,"MEAN_MOTION_DOT":-0.00000487,"MEAN_MOTION_DDOT":0},{"OBJECT_NAME":"ONEWEB-0090","OBJECT_ID":"2020-020D","EPOCH":"2026-07-23T14:33:23.709024","CLASSIFICATION_TYPE":"U","MEAN_MOTION":13.11417972,"ECCENTRICITY":0.0001834,"INCLINATION":87.8901,"RA_OF_ASC_NODE":13.8231,"ARG_OF_PERICENTER":92.4638,"MEAN_ANOMALY":267.67,"EPHEMERIS_TYPE":0,"NORAD_CAT_ID":45427,"ELEMENT_SET_NO":999,"REV_AT_EPOCH":30744,"BSTAR":0.0012284,"MEAN_MOTION_DOT":0.00000448,"MEAN_MOTION_DDOT":0},{"OBJECT_NAME":"ONEWEB-0061","OBJECT_ID":"2020-020E","EPOCH":"2026-07-23T20:48:58.201056","CLASSIFICATION_TYPE":"U","MEAN_MOTION":13.11415297,"ECCENTRICITY":0.0001786,"INCLINATION":87.8901,"RA_OF_ASC_NODE":13.755,"ARG_OF_PERICENTER":93.3059,"MEAN_ANOMALY":266.8274,"EPHEMERIS_TYPE":0,"NORAD_CAT_ID":45428,"ELEMENT_SET_NO":999,"REV_AT_EPOCH":30743,"BSTAR":-0.00010828,"MEAN_MOTION_DOT":-2.6e-7,"MEAN_MOTION_DDOT":0},{"OBJECT_NAME":"ONEWEB-0081","OBJECT_ID":"2020-020F","EPOCH":"2026-07-23T11:12:59.696640","CLASSIFICATION_TYPE":"U","MEAN_MOTION":13.11416033,"ECCENTRICITY":0.0001607,"INCLINATION":87.8894,"RA_OF_ASC_NODE":13.8437,"ARG_OF_PERICENTER":94.0597,"MEAN_ANOMALY":266.0715,"EPHEMERIS_TYPE":0,"NORAD_CAT_ID":45429,"ELEMENT_SET_NO":999,"REV_AT_EPOCH":30749,"BSTAR":0.001273,"MEAN_MOTION_DOT":0.00000464,"MEAN_MOTION_DDOT":0},{"OBJECT_NAME":"ONEWEB-0069","OBJECT_ID":"2020-020G","EPOCH":"2026-07-23T09:25:44.482080","CLASSIFICATION_TYPE":"U","MEAN_MOTION":13.11424044,"ECCENTRICITY":0.000163,"INCLINATION":87.8895,"RA_OF_ASC_NODE":13.8627,"ARG_OF_PERICENTER":94.0407,"MEAN_ANOMALY":266.0907,"EPHEMERIS_TYPE":0,"NORAD_CAT_ID":45430,"ELEMENT_SET_NO":999,"REV_AT_EPOCH":30741,"BSTAR":-0.0028702,"MEAN_MOTION_DOT":-0.00001005,"MEAN_MOTION_DDOT":0},{"OBJECT_NAME":"ONEWEB-0031","OBJECT_ID":"2020-020H","EPOCH":"2026-07-23T10:16:49.916064","CLASSIFICATION_TYPE":"U","MEAN_MOTION":13.11419556,"ECCENTRICITY":0.0001991,"INCLINATION":87.8886,"RA_OF_ASC_NODE":13.8573,"ARG_OF_PERICENTER":93.5509,"MEAN_ANOMALY":266.5846,"EPHEMERIS_TYPE":0,"NORAD_CAT_ID":45431,"ELEMENT_SET_NO":999,"REV_AT_EPOCH":30740,"BSTAR":-0.0011744,"MEAN_MOTION_DOT":-0.00000404,"MEAN_MOTION_DDOT":0}]}
